{
  "norad_id": 48234,
  "name": "ONEWEB-0199",
  "history": [
    {
      "epoch": "2026-03-28T21:08:44.320128Z",
      "apogee_km": 1207.0224757435817,
      "perigee_km": 1204.5654337928554,
      "latitude_deg": -2.610855497433344e-05,
      "longitude_deg": 162.24077516593684,
      "height_km": 1208.7104171064968,
      "semi_major_axis_km": 7583.930954768218,
      "eccentricity": 0.00016199,
      "inclination_deg": 87.8958,
      "raan_deg": 305.7206,
      "arg_perigee_deg": 91.1827,
      "mean_anomaly_deg": 268.9488,
      "mean_motion_rev_day": 13.14501864
    },
    {
      "epoch": "2026-03-29T00:47:57.455232Z",
      "apogee_km": 1207.0277993348463,
      "perigee_km": 1204.5584716827252,
      "latitude_deg": -1.6376370437225572e-05,
      "longitude_deg": 107.25569587442624,
      "height_km": 1208.717201701794,
      "semi_major_axis_km": 7583.9301355087855,
      "eccentricity": 0.0001628,
      "inclination_deg": 87.8958,
      "raan_deg": 305.6903,
      "arg_perigee_deg": 91.5304,
      "mean_anomaly_deg": 268.6012,
      "mean_motion_rev_day": 13.14502077
    },
    {
      "epoch": "2026-03-30T02:22:29.510688Z",
      "apogee_km": 1207.0361839740972,
      "perigee_km": 1204.5501716618082,
      "latitude_deg": -3.83199362544915e-05,
      "longitude_deg": 82.35917990089212,
      "height_km": 1208.7269641907792,
      "semi_major_axis_km": 7583.930177817952,
      "eccentricity": 0.0001639,
      "inclination_deg": 87.8955,
      "raan_deg": 305.4777,
      "arg_perigee_deg": 91.9691,
      "mean_anomaly_deg": 268.1626,
      "mean_motion_rev_day": 13.14502066
    },
    {
      "epoch": "2026-03-30T13:20:09.024864Z",
      "apogee_km": 1207.039505515253,
      "perigee_km": 1204.5510656537072,
      "latitude_deg": -5.858560191775292e-05,
      "longitude_deg": -82.59661400767989,
      "height_km": 1208.7251728184804,
      "semi_major_axis_km": 7583.93228558448,
      "eccentricity": 0.00016406,
      "inclination_deg": 87.8955,
      "raan_deg": 305.3867,
      "arg_perigee_deg": 91.7876,
      "mean_anomaly_deg": 268.3441,
      "mean_motion_rev_day": 13.14501518
    },
    {
      "epoch": "2026-03-31T13:05:04.527456Z",
      "apogee_km": 1207.0542463697639,
      "perigee_km": 1204.5344093467702,
      "latitude_deg": 5.879318686118789e-06,
      "longitude_deg": -80.00049770717767,
      "height_km": 1208.7273004057172,
      "semi_major_axis_km": 7583.931327858267,
      "eccentricity": 0.00016613,
      "inclination_deg": 87.8953,
      "raan_deg": 305.1894,
      "arg_perigee_deg": 91.9078,
      "mean_anomaly_deg": 268.2242,
      "mean_motion_rev_day": 13.14501767
    },
    {
      "epoch": "2026-04-01T20:08:26.416032Z",
      "apogee_km": 1207.0547887857429,
      "perigee_km": 1204.533890008528,
      "latitude_deg": 1.8422248504951353e-06,
      "longitude_deg": 172.62487352663092,
      "height_km": 1208.7349574993063,
      "semi_major_axis_km": 7583.931339397135,
      "eccentricity": 0.0001662,
      "inclination_deg": 87.8953,
      "raan_deg": 304.9314,
      "arg_perigee_deg": 92.2547,
      "mean_anomaly_deg": 267.8773,
      "mean_motion_rev_day": 13.14501764
    },
    {
      "epoch": "2026-04-02T19:53:22.030944Z",
      "apogee_km": 1207.058564265626,
      "perigee_km": 1204.5309914826958,
      "latitude_deg": -4.70192450619716e-05,
      "longitude_deg": 175.22031590024378,
      "height_km": 1208.7385316371801,
      "semi_major_axis_km": 7583.931777874161,
      "eccentricity": 0.00016664,
      "inclination_deg": 87.8953,
      "raan_deg": 304.7339,
      "arg_perigee_deg": 92.391,
      "mean_anomaly_deg": 267.741,
      "mean_motion_rev_day": 13.1450165
    },
    {
      "epoch": "2026-04-03T14:09:27.898272Z",
      "apogee_km": 1207.056822156589,
      "perigee_km": 1204.529856567514,
      "latitude_deg": 5.4558628468580584e-05,
      "longitude_deg": -99.7061797875303,
      "height_km": 1208.7308866829765,
      "semi_major_axis_km": 7583.930339362051,
      "eccentricity": 0.0001666,
      "inclination_deg": 87.8951,
      "raan_deg": 304.5821,
      "arg_perigee_deg": 92.1107,
      "mean_anomaly_deg": 268.0214,
      "mean_motion_rev_day": 13.14502024
    },
    {
      "epoch": "2026-04-04T01:07:07.408992Z",
      "apogee_km": 1207.0616511421367,
      "perigee_km": 1204.5252814369896,
      "latitude_deg": -1.69492157070838e-05,
      "longitude_deg": 95.33793826634546,
      "height_km": 1208.7308733487703,
      "semi_major_axis_km": 7583.930466289563,
      "eccentricity": 0.00016722,
      "inclination_deg": 87.8949,
      "raan_deg": 304.491,
      "arg_perigee_deg": 92.0966,
      "mean_anomaly_deg": 268.0355,
      "mean_motion_rev_day": 13.14501991
    },
    {
      "epoch": "2026-04-05T13:39:19.079712Z",
      "apogee_km": 1207.0720301304864,
      "perigee_km": 1204.5123023582964,
      "latitude_deg": -9.222545079426191e-05,
      "longitude_deg": -94.5148982377175,
      "height_km": 1208.7327074932118,
      "semi_major_axis_km": 7583.929166244391,
      "eccentricity": 0.00016876,
      "inclination_deg": 87.8946,
      "raan_deg": 304.1873,
      "arg_perigee_deg": 92.2186,
      "mean_anomaly_deg": 267.9136,
      "mean_motion_rev_day": 13.14502329
    },
    {
      "epoch": "2026-04-05T20:57:45.478656Z",
      "apogee_km": 1207.0677891832083,
      "perigee_km": 1204.521105003274,
      "latitude_deg": 1.8933904549240218e-05,
      "longitude_deg": 155.5143081784624,
      "height_km": 1208.7527903923274,
      "semi_major_axis_km": 7583.93144709324,
      "eccentricity": 0.0001679,
      "inclination_deg": 87.8947,
      "raan_deg": 304.1266,
      "arg_perigee_deg": 93.0317,
      "mean_anomaly_deg": 267.1005,
      "mean_motion_rev_day": 13.14501736
    },
    {
      "epoch": "2026-04-06T02:26:35.150208Z",
      "apogee_km": 1207.0780813350666,
      "perigee_km": 1204.5056126701638,
      "latitude_deg": 2.5768615641054267e-05,
      "longitude_deg": 73.03666847728496,
      "height_km": 1208.752622235415,
      "semi_major_axis_km": 7583.928847002615,
      "eccentricity": 0.0001696,
      "inclination_deg": 87.8946,
      "raan_deg": 304.081,
      "arg_perigee_deg": 93.1111,
      "mean_anomaly_deg": 267.0213,
      "mean_motion_rev_day": 13.14502412
    },
    {
      "epoch": "2026-04-07T13:09:10.109088Z",
      "apogee_km": 1207.0954573219642,
      "perigee_km": 1204.4873443449187,
      "latitude_deg": -3.827337825931092e-05,
      "longitude_deg": -89.32307687141163,
      "height_km": 1208.7593428465984,
      "semi_major_axis_km": 7583.928400833442,
      "eccentricity": 0.00017195,
      "inclination_deg": 87.8943,
      "raan_deg": 303.7924,
      "arg_perigee_deg": 93.3853,
      "mean_anomaly_deg": 266.7473,
      "mean_motion_rev_day": 13.14502528
    },
    {
      "epoch": "2026-04-07T20:27:36.343008Z",
      "apogee_km": 1207.0991525488498,
      "perigee_km": 1204.4796643673671,
      "latitude_deg": 7.633137782365639e-05,
      "longitude_deg": 160.70671880658958,
      "height_km": 1208.7574830472156,
      "semi_major_axis_km": 7583.926408458108,
      "eccentricity": 0.0001727,
      "inclination_deg": 87.8943,
      "raan_deg": 303.7316,
      "arg_perigee_deg": 93.3777,
      "mean_anomaly_deg": 266.7551,
      "mean_motion_rev_day": 13.14503046
    },
    {
      "epoch": "2026-04-08T14:43:42.119616Z",
      "apogee_km": 1207.105566480781,
      "perigee_km": 1204.4777352032634,
      "latitude_deg": 1.3839873588841556e-05,
      "longitude_deg": -114.2195062494037,
      "height_km": 1208.7607847648546,
      "semi_major_axis_km": 7583.928650842022,
      "eccentricity": 0.00017325,
      "inclination_deg": 87.8942,
      "raan_deg": 303.5797,
      "arg_perigee_deg": 93.4133,
      "mean_anomaly_deg": 266.7195,
      "mean_motion_rev_day": 13.14502463
    },
    {
      "epoch": "2026-04-09T12:39:00.963072Z",
      "apogee_km": 1207.1175567767132,
      "perigee_km": 1204.4646987176275,
      "latitude_deg": 2.221949694982898e-05,
      "longitude_deg": -84.13062355055565,
      "height_km": 1208.757589162561,
      "semi_major_axis_km": 7583.92812774717,
      "eccentricity": 0.0001749,
      "inclination_deg": 87.8941,
      "raan_deg": 303.3974,
      "arg_perigee_deg": 93.2668,
      "mean_anomaly_deg": 266.8662,
      "mean_motion_rev_day": 13.14502599
    },
    {
      "epoch": "2026-04-10T12:23:56.420736Z",
      "apogee_km": 1207.1336951493959,
      "perigee_km": 1204.447468000003,
      "latitude_deg": -2.9699223224754183e-05,
      "longitude_deg": -81.5346276808697,
      "height_km": 1208.758050055046,
      "semi_major_axis_km": 7583.9275815747,
      "eccentricity": 0.0001771,
      "inclination_deg": 87.8941,
      "raan_deg": 303.1998,
      "arg_perigee_deg": 93.2705,
      "mean_anomaly_deg": 266.8627,
      "mean_motion_rev_day": 13.14502741
    },
    {
      "epoch": "2026-04-11T19:27:18.224640Z",
      "apogee_km": 1207.1456019228972,
      "perigee_km": 1204.4366228011613,
      "latitude_deg": 5.427946759506382e-06,
      "longitude_deg": 171.09069466369712,
      "height_km": 1208.766637016045,
      "semi_major_axis_km": 7583.928112362029,
      "eccentricity": 0.0001786,
      "inclination_deg": 87.8939,
      "raan_deg": 302.9414,
      "arg_perigee_deg": 93.5857,
      "mean_anomaly_deg": 266.5477,
      "mean_motion_rev_day": 13.14502603
    },
    {
      "epoch": "2026-04-13T06:09:53.231040Z",
      "apogee_km": 1207.1448110721112,
      "perigee_km": 1204.4323442500045,
      "latitude_deg": -1.7521534967699148e-05,
      "longitude_deg": 8.730755458102314,
      "height_km": 1208.7679383397365,
      "semi_major_axis_km": 7583.925577661057,
      "eccentricity": 0.00017883,
      "inclination_deg": 87.8939,
      "raan_deg": 302.6528,
      "arg_perigee_deg": 93.7434,
      "mean_anomaly_deg": 266.39,
      "mean_motion_rev_day": 13.14503262
    }
  ]
}